OBJECT_NAME,OBJECT_ID,EPOCH,MEAN_MOTION,ECCENTRICITY,INCLINATION,RA_OF_ASC_NODE,ARG_OF_PERICENTER,MEAN_ANOMALY,EPHEMERIS_TYPE,CLASSIFICATION_TYPE,NORAD_CAT_ID,ELEMENT_SET_NO,REV_AT_EPOCH,BSTAR,MEAN_MOTION_DOT,MEAN_MOTION_DDOT
STARLINK-4318,2022-077AV,2026-07-13T11:12:15.610176,15.05645799,.00012925,97.2840,12.1444,106.4471,253.6899,0,U,53086,999,21984,.1464778E-5,-.35E-6,0
STARLINK-4333,2022-077AX,2026-07-13T11:04:16.239648,15.05654180,.000127,97.2846,11.9910,101.7420,258.3950,0,U,53088,999,21983,.9854022E-5,.86E-6,0
STARLINK-4150,2022-083C,2026-07-13T20:00:01.999008,15.26967616,.0001006,53.1605,326.6080,79.8164,270.8711,0,U,53134,999,578,.31178E-2,.84245E-3,0
STARLINK-4023,2022-083D,2026-07-13T18:30:22.488768,15.35421157,.0001037,53.1607,324.7261,66.7410,293.3702,0,U,53135,999,22128,.16818E-3,.5494E-4,0
STARLINK-4152,2022-083E,2026-07-13T20:00:01.999008,15.25216555,.0000764,53.1610,326.6988,73.2662,211.7225,0,U,53136,999,573,.32184E-2,.8247E-3,0
STARLINK-4145,2022-083F,2026-07-13T20:00:01.999008,15.22536468,.0000811,53.1610,326.6889,66.4864,262.8283,0,U,53137,999,573,.34509E-2,.81646E-3,0
STARLINK-4141,2022-083G,2026-07-13T20:00:01.999008,15.14362208,.000171,53.1605,322.7112,105.5845,157.2556,0,U,53138,999,578,.40454E-2,.75551E-3,0
STARLINK-4185,2022-083H,2026-07-13T15:33:55.788768,15.08834916,.0001163,53.1603,328.4192,73.4682,286.6437,0,U,53139,999,22023,.14024E-4,-.65E-6,0
STARLINK-4170,2022-083J,2026-07-13T20:00:01.999008,15.22622282,.0001687,53.1607,326.9808,53.8552,165.0504,0,U,53140,999,583,.33736E-2,.79997E-3,0
STARLINK-4103,2022-083K,2026-07-13T20:00:01.999008,15.35336275,.0001025,53.1608,324.6761,75.1616,348.1180,0,U,53141,999,579,.19417E-2,.67822E-3,0
STARLINK-4101,2022-083L,2026-07-13T15:28:31.436256,15.33548528,.0001017,53.1621,325.6371,81.5312,278.5806,0,U,53142,999,22028,.38095E-4,.88E-5,0
STARLINK-4102,2022-083M,2026-07-13T14:33:19.187712,15.14250018,.0001151,53.1626,327.6646,179.8955,180.2040,0,U,53143,999,22024,.58936E-5,-.195E-5,0
STARLINK-4100,2022-083N,2026-07-13T15:05:41.158176,15.33546229,.0001026,53.1613,325.5859,91.4801,268.6318,0,U,53144,999,22027,.27804E-4,.542E-5,0
STARLINK-4106,2022-083P,2026-07-13T20:00:01.999008,15.29323434,.0000966,53.1597,326.5473,78.3462,163.2676,0,U,53145,999,584,.18706E-2,.53961E-3,0
STARLINK-4094,2022-083R,2026-07-13T15:50:39.988320,15.35403776,.0000993,53.1626,325.3004,75.3057,284.8056,0,U,53147,999,22093,.45628E-4,.1212E-4,0
STARLINK-4021,2022-083T,2026-07-13T20:00:01.999008,15.29903753,.000095,53.1593,316.3411,77.7801,240.8153,0,U,53149,999,583,.24344E-2,.71776E-3,0
STARLINK-4040,2022-083V,2026-07-13T15:43:04.934208,15.18299066,.0000826,53.1607,317.6726,106.2140,253.8946,0,U,53151,999,22038,.12374E-2,.25461E-3,0
STARLINK-4045,2022-083W,2026-07-13T20:00:01.999008,15.62950216,.0001345,53.2264,298.5939,57.3095,273.0798,0,U,53152,999,584,.19345E-2,.181978E-2,0
STARLINK-4098,2022-083X,2026-07-13T15:40:33.373056,15.08831486,.0001069,53.1612,318.3961,89.0665,271.0448,0,U,53153,999,22037,.57346E-4,.625E-5,0
STARLINK-4077,2022-083Y,2026-07-13T15:51:09.332352,15.08831853,.0001131,53.1612,318.3631,91.1432,268.9689,0,U,53154,999,22037,.19324E-4,.2E-6,0
STARLINK-4088,2022-083Z,2026-07-13T15:29:57.587424,15.08830572,.0001101,53.1618,318.4312,93.9331,266.1786,0,U,53155,999,22101,.20817E-4,.43E-6,0
STARLINK-4087,2022-083AA,2026-07-13T12:03:15.839424,15.08831256,.00013143,53.1617,318.9514,85.4056,274.7086,0,U,53156,999,22035,.39464314E-4,.34E-5,0
STARLINK-4054,2022-083AC,2026-07-13T20:00:01.999008,15.21890916,.0000529,53.1605,316.7529,80.0381,270.9987,0,U,53158,999,563,.28882E-2,.66853E-3,0
STARLINK-4111,2022-083AD,2026-07-13T15:08:45.591936,15.08835762,.0001515,53.1606,318.5029,60.2014,299.9128,0,U,53159,999,22037,-.14143E-3,-.2538E-4,0
STARLINK-4096,2022-083AE,2026-07-13T15:24:39.413376,15.08832080,.0000876,53.1613,318.4471,85.5311,274.5780,0,U,53160,999,22037,.22816E-4,.75E-6,0
STARLINK-4055,2022-083AF,2026-07-13T20:00:01.999008,15.20532359,.0001162,53.1609,316.9246,51.2375,12.0080,0,U,53161,999,583,.32265E-2,.71847E-3,0
STARLINK-4114,2022-083AG,2026-07-13T20:00:01.999008,15.22607065,.0002063,53.1589,317.2015,79.5232,118.7056,0,U,53162,999,583,.28972E-2,.68515E-3,0
STARLINK-4104,2022-083AH,2026-07-13T18:14:14.877888,15.08839891,.0000988,53.1602,318.0636,73.7884,286.3216,0,U,53163,999,22039,.17043E-4,-.17E-6,0
STARLINK-4116,2022-083AJ,2026-07-13T14:58:08.923296,15.08840076,.0001172,53.1604,318.5321,83.5022,276.6103,0,U,53164,999,22037,.40396E-4,.355E-5,0
STARLINK-4090,2022-083AK,2026-07-13T14:36:57.024576,15.08840297,.0000982,53.1603,318.5918,95.1681,264.9422,0,U,53165,999,22037,.59842E-4,.665E-5,0
STARLINK-4110,2022-083AL,2026-07-13T20:18:58.008672,15.57089275,.0003828,53.2168,294.1453,29.1001,331.0225,0,U,53166,999,22074,-.53066E-3,-.39446E-3,0
STARLINK-3683,2022-083AM,2026-07-13T15:02:47.544288,15.08837934,.0001378,53.1605,303.5047,76.9169,283.1976,0,U,53167,999,22057,.53471E-4,.563E-5,0
STARLINK-4105,2022-083AN,2026-07-13T14:42:16.111008,15.08828874,.0001288,53.1611,318.5811,63.7463,296.3661,0,U,53168,999,22037,-.1424E-4,-.515E-5,0
STARLINK-4117,2022-083AP,2026-07-13T20:00:01.999008,15.23058527,.0001313,53.1587,302.2223,64.7378,60.0712,0,U,53169,999,568,.194E-2,.46243E-3,0
STARLINK-4095,2022-083AQ,2026-07-13T15:22:39.458208,15.08835526,.0001041,53.1613,313.4053,91.8524,268.2587,0,U,53170,999,22044,.29963E-4,.189E-5,0
STARLINK-4052,2022-083AR,2026-07-13T20:00:01.999008,15.19244580,.0001179,53.1593,286.7935,45.8199,344.5265,0,U,53171,999,583,.10414E-2,.21965E-3,0
STARLINK-4299,2022-083AS,2026-07-13T20:00:01.999008,15.26757322,.0001364,53.1608,311.5057,63.9159,96.5626,0,U,53172,999,574,.24717E-2,.66127E-3,0
STARLINK-4300,2022-083AT,2026-07-13T20:00:01.999008,15.17248048,.0001398,53.1589,292.0054,37.8713,154.5884,0,U,53173,999,578,.13794E-2,.27575E-3,0
STARLINK-4205,2022-083AU,2026-07-13T18:31:28.073280,15.31690371,.0001196,53.1613,323.9167,66.9500,293.1628,0,U,53174,999,22030,.3183E-3,.9522E-4,0
STARLINK-4292,2022-083AV,2026-07-13T16:16:19.570656,15.08828384,.0001241,53.1615,328.2861,79.1097,281.0034,0,U,53175,999,22023,.10851E-3,.1439E-4,0
STARLINK-4294,2022-083AW,2026-07-13T20:00:01.999008,15.20315871,.0002168,53.1602,301.9822,47.6483,321.6617,0,U,53176,999,583,.20362E-2,.4477E-3,0
STARLINK-4298,2022-083AX,2026-07-13T20:00:01.999008,15.16070021,.0000467,53.1594,292.1197,78.1652,94.9096,0,U,53177,999,578,.15435E-2,.29875E-3,0
STARLINK-4280,2022-083AY,2026-07-13T14:31:40.244160,15.08824761,.0001236,53.1597,318.6171,81.3877,278.7255,0,U,53178,999,22035,-.95118E-4,-.1801E-4,0
STARLINK-4276,2022-083AZ,2026-07-13T20:00:01.999008,15.13128366,.0001207,53.1604,277.0241,67.0108,215.1856,0,U,53179,999,583,.54438E-3,.9469E-4,0
STARLINK-4258,2022-083BA,2026-07-13T20:00:01.999008,15.14548581,.0002147,53.1582,277.3727,79.4700,23.5926,0,U,53180,999,574,.99158E-3,.18238E-3,0
STARLINK-4278,2022-083BC,2026-07-13T20:00:01.999008,15.28759182,.0000385,53.1604,290.6474,26.4038,206.1276,0,U,53182,999,583,.95447E-3,.26786E-3,0
STARLINK-4268,2022-083BD,2026-07-13T20:00:01.999008,15.16520702,.0000522,53.1600,282.0580,50.5497,90.4767,0,U,53183,999,578,.91661E-3,.17816E-3,0
STARLINK-4257,2022-083BE,2026-07-13T11:04:55.381440,15.08832841,.00010831,53.1588,278.8366,83.9657,276.1458,0,U,53184,999,22091,.18461742E-4,.6E-7,0
STARLINK-4391,2022-084A,2026-07-13T15:05:27.748032,15.05653952,.0001747,97.2838,253.3034,114.3245,245.8165,0,U,53189,999,21900,-.13072E-5,-.75E-6,0
STARLINK-4332,2022-084B,2026-07-13T17:01:06.068064,15.05654424,.000148,97.2813,253.4172,122.6594,237.4777,0,U,53190,999,21901,.40182E-4,.524E-5,0
STARLINK-4369,2022-084C,2026-07-13T20:00:01.999008,15.45238325,.0002019,97.6014,257.1083,96.2377,100.4200,0,U,53191,999,579,-.25637E-1,-.109996E-1,0
STARLINK-4375,2022-084D,2026-07-13T17:44:57.926976,15.05652884,.0001546,97.2825,253.4393,122.8174,237.3203,0,U,53192,999,21901,-.12195E-4,-.232E-5,0
STARLINK-4351,2022-084E,2026-07-13T18:30:51.407712,15.05657666,.0001929,97.2880,252.3364,139.1488,220.9884,0,U,53193,999,21929,.25031E-4,.305E-5,0
STARLINK-4382,2022-084F,2026-07-13T18:08:53.094912,15.05653852,.0001552,97.2840,253.4273,106.0783,254.0615,0,U,53194,999,21834,.37047E-5,-.3E-7,0
STARLINK-4403,2022-084J,2026-07-13T16:47:11.054400,15.05662361,.0002645,97.2742,252.2820,165.4447,194.6857,0,U,53197,999,21826,.26019E-4,.319E-5,0
STARLINK-4385,2022-084K,2026-07-13T17:31:03.737568,15.05655486,.0001935,97.2823,252.3825,114.0456,246.0975,0,U,53198,999,21893,.27632E-5,-.16E-6,0
STARLINK-4395,2022-084L,2026-07-13T17:32:59.540352,15.05656852,.0001851,97.2811,253.4352,172.4623,187.6633,0,U,53199,999,21834,.22684E-5,-.24E-6,0
STARLINK-4417,2022-084M,2026-07-13T18:00:54.292032,15.05664768,.0001599,97.2808,253.4181,101.6905,258.4502,0,U,53200,999,21900,-.13744E-4,-.255E-5,0
STARLINK-4405,2022-084N,2026-07-13T17:29:59.443008,15.52478096,.0001601,97.6001,258.3551,135.8437,224.2943,0,U,53201,999,21853,-.2003E-2,-.120667E-2,0
STARLINK-4411,2022-084P,2026-07-13T17:17:03.132960,15.05657349,.0000614,97.2823,253.4474,119.1363,240.9926,0,U,53202,999,21834,.39441E-4,.513E-5,0
STARLINK-4409,2022-084Q,2026-07-13T17:13:02.949600,15.05661095,.0001573,97.2820,253.4353,180.4113,179.7114,0,U,53203,999,21834,.67211E-4,.914E-5,0
STARLINK-4410,2022-084R,2026-07-13T20:00:01.999008,15.43619381,.0001519,97.6017,256.8560,87.4027,314.0176,0,U,53204,999,588,-.10003E-1,-.425827E-2,0
STARLINK-4397,2022-084S,2026-07-13T17:05:05.782272,15.05655036,.0001942,97.2850,253.4358,109.0230,251.1208,0,U,53205,999,21834,.17693E-4,.199E-5,0
STARLINK-4408,2022-084T,2026-07-13T20:00:01.999008,15.08431297,.0001404,97.2846,253.5344,91.9839,150.7723,0,U,53206,999,582,.2979E-1,.491358E-2,0
STARLINK-4413,2022-084U,2026-07-13T18:06:56.024640,15.05654092,.0001682,97.2839,252.2987,100.8792,259.2625,0,U,53207,999,21827,.87517E-5,.7E-6,0
STARLINK-4425,2022-084V,2026-07-13T18:02:56.280192,15.05658045,.0001782,97.2838,252.3769,86.7572,273.3860,0,U,53208,999,21827,.37797E-4,.489E-5,0
